{
  "type": "FeatureCollection",
  "features": [
    {
      "type": "Feature",
      "properties": {
        "norad_id": 66997,
        "name": "2025-292E",
        "group": "last-30-days",
        "lat": 32.50552756437028,
        "lon": 68.28481494384205,
        "alt_km": 559.9521461334962,
        "timestamp": "2025-12-26T18:39:30.999685+00:00",
        "meta_object_name": "2025-292E",
        "meta_object_id": "2025-292E",
        "meta_epoch": "2025-12-26T15:19:15.523968",
        "meta_mean_motion": 15.0478367,
        "meta_eccentricity": 0.00143272,
        "meta_inclination": 97.6508,
        "meta_ra_of_asc_node": 73.0608,
        "meta_arg_of_pericenter": 226.8038,
        "meta_mean_anomaly": 133.1992,
        "meta_ephemeris_type": 0,
        "meta_classification_type": "U",
        "meta_norad_cat_id": 66997,
        "meta_element_set_no": 999,
        "meta_rev_at_epoch": 247,
        "meta_bstar": 0.00034617165,
        "meta_mean_motion_dot": 4.833e-05,
        "meta_mean_motion_ddot": 0,
        "tle_line1": "1 66997U 25292E   25360.63837412  .00004833  00000+0  34617-3 0  9998",
        "tle_line2": "2 66997  97.6508  73.0608 0014327 226.8038 133.1992 15.04783670  2476"
      },
      "geometry": {
        "type": "Point",
        "coordinates": [
          68.28481494384205,
          32.50552756437028
        ]
      }
    },
    {
      "type": "Feature",
      "properties": {
        "norad_id": 66998,
        "name": "2025-292F",
        "group": "last-30-days",
        "lat": 42.22976042950847,
        "lon": 66.19622373724667,
        "alt_km": 558.8787636080197,
        "timestamp": "2025-12-26T18:39:30.999695+00:00",
        "meta_object_name": "2025-292F",
        "meta_object_id": "2025-292F",
        "meta_epoch": "2025-12-26T15:16:39.247104",
        "meta_mean_motion": 15.04971192,
        "meta_eccentricity": 0.00154667,
        "meta_inclination": 97.6528,
        "meta_ra_of_asc_node": 73.0669,
        "meta_arg_of_pericenter": 227.6294,
        "meta_mean_anomaly": 132.3623,
        "meta_ephemeris_type": 0,
        "meta_classification_type": "U",
        "meta_norad_cat_id": 66998,
        "meta_element_set_no": 999,
        "meta_rev_at_epoch": 248,
        "meta_bstar": 0.00046715752,
        "meta_mean_motion_dot": 6.58e-05,
        "meta_mean_motion_ddot": 0,
        "tle_line1": "1 66998U 25292F   25360.63656536  .00006580  00000+0  46716-3 0  9999",
        "tle_line2": "2 66998  97.6528  73.0669 0015466 227.6294 132.3623 15.04971192  2485"
      },
      "geometry": {
        "type": "Point",
        "coordinates": [
          66.19622373724667,
          42.22976042950847
        ]
      }
    },
    {
      "type": "Feature",
      "properties": {
        "norad_id": 66999,
        "name": "2025-292G",
        "group": "last-30-days",
        "lat": 45.96052349117403,
        "lon": 65.21639676739622,
        "alt_km": 557.7963117896315,
        "timestamp": "2025-12-26T18:39:30.999709+00:00",
        "meta_object_name": "2025-292G",
        "meta_object_id": "2025-292G",
        "meta_epoch": "2025-12-26T15:15:39.184416",
        "meta_mean_motion": 15.05035308,
        "meta_eccentricity": 0.00149614,
        "meta_inclination": 97.6537,
        "meta_ra_of_asc_node": 73.0696,
        "meta_arg_of_pericenter": 229.6191,
        "meta_mean_anomaly": 130.373,
        "meta_ephemeris_type": 0,
        "meta_classification_type": "U",
        "meta_norad_cat_id": 66999,
        "meta_element_set_no": 999,
        "meta_rev_at_epoch": 248,
        "meta_bstar": 0.0004656068,
        "meta_mean_motion_dot": 6.569e-05,
        "meta_mean_motion_ddot": 0,
        "tle_line1": "1 66999U 25292G   25360.63587019  .00006569  00000+0  46561-3 0  9994",
        "tle_line2": "2 66999  97.6537  73.0696 0014961 229.6191 130.3730 15.05035308  2481"
      },
      "geometry": {
        "type": "Point",
        "coordinates": [
          65.21639676739622,
          45.96052349117403
        ]
      }
    },
    {
      "type": "Feature",
      "properties": {
        "norad_id": 67000,
        "name": "2025-292H",
        "group": "last-30-days",
        "lat": 46.76488882842079,
        "lon": 64.98821953153256,
        "alt_km": 557.5358459751733,
        "timestamp": "2025-12-26T18:39:30.999719+00:00",
        "meta_object_name": "2025-292H",
        "meta_object_id": "2025-292H",
        "meta_epoch": "2025-12-26T12:03:57.949920",
        "meta_mean_motion": 15.05067578,
        "meta_eccentricity": 0.00148985,
        "meta_inclination": 97.6551,
        "meta_ra_of_asc_node": 72.9404,
        "meta_arg_of_pericenter": 229.877,
        "meta_mean_anomaly": 130.1152,
        "meta_ephemeris_type": 0,
        "meta_classification_type": "U",
        "meta_norad_cat_id": 67000,
        "meta_element_set_no": 999,
        "meta_rev_at_epoch": 233,
        "meta_bstar": 0.00054111745,
        "meta_mean_motion_dot": 7.652e-05,
        "meta_mean_motion_ddot": 0,
        "tle_line1": "1 67000U 25292H   25360.50275405  .00007652  00000+0  54112-3 0  9992",
        "tle_line2": "2 67000  97.6551  72.9404 0014898 229.8770 130.1152 15.05067578  2334"
      },
      "geometry": {
        "type": "Point",
        "coordinates": [
          64.98821953153256,
          46.76488882842079
        ]
      }
    },
    {
      "type": "Feature",
      "properties": {
        "norad_id": 67001,
        "name": "2025-292J",
        "group": "last-30-days",
        "lat": 11.552490918698314,
        "lon": 71.61840842129286,
        "alt_km": 564.0286019065115,
        "timestamp": "2025-12-26T18:39:30.999729+00:00",
        "meta_object_name": "2025-292J",
        "meta_object_id": "2025-292J",
        "meta_epoch": "2025-12-26T10:37:31.654272",
        "meta_mean_motion": 15.04447768,
        "meta_eccentricity": 0.00151592,
        "meta_inclination": 97.6526,
        "meta_ra_of_asc_node": 72.8619,
        "meta_arg_of_pericenter": 219.4056,
        "meta_mean_anomaly": 140.6068,
        "meta_ephemeris_type": 0,
        "meta_classification_type": "U",
        "meta_norad_cat_id": 67001,
        "meta_element_set_no": 999,
        "meta_rev_at_epoch": 245,
        "meta_bstar": 0.00040737276,
        "meta_mean_motion_dot": 5.649e-05,
        "meta_mean_motion_ddot": 0,
        "tle_line1": "1 67001U 25292J   25360.44272748  .00005649  00000+0  40737-3 0  9995",
        "tle_line2": "2 67001  97.6526  72.8619 0015159 219.4056 140.6068 15.04447768  2454"
      },
      "geometry": {
        "type": "Point",
        "coordinates": [
          71.61840842129286,
          11.552490918698314
        ]
      }
    },
    {
      "type": "Feature",
      "properties": {
        "norad_id": 67002,
        "name": "ZK-1A R/B",
        "group": "last-30-days",
        "lat": -51.54326450227185,
        "lon": -115.11201068337627,
        "alt_km": 375.2496814092474,
        "timestamp": "2025-12-26T18:39:30.999739+00:00",
        "meta_object_name": "ZK-1A R/B",
        "meta_object_id": "2025-292K",
        "meta_epoch": "2025-12-26T11:29:14.272224",
        "meta_mean_motion": 15.58986322,
        "meta_eccentricity": 0.02042658,
        "meta_inclination": 97.7196,
        "meta_ra_of_asc_node": 74.3979,
        "meta_arg_of_pericenter": 315.182,
        "meta_mean_anomaly": 43.3089,
        "meta_ephemeris_type": 0,
        "meta_classification_type": "U",
        "meta_norad_cat_id": 67002,
        "meta_element_set_no": 999,
        "meta_rev_at_epoch": 253,
        "meta_bstar": 0.00068078438,
        "meta_mean_motion_dot": 0.00148156,
        "meta_mean_motion_ddot": 8.13636e-06,
        "tle_line1": "1 67002U 25292K   25360.47863741  .00148156  81364-5  68078-3 0  9995",
        "tle_line2": "2 67002  97.7196  74.3979 0204265 315.1820  43.3089 15.58986322  2530"
      },
      "geometry": {
        "type": "Point",
        "coordinates": [
          -115.11201068337627,
          -51.54326450227185
        ]
      }
    },
    {
      "type": "Feature",
      "properties": {
        "norad_id": 67003,
        "name": "STARLINK-35660",
        "group": "last-30-days",
        "lat": -38.46982089476416,
        "lon": -93.55880201842444,
        "alt_km": 357.1943359507204,
        "timestamp": "2025-12-26T18:39:30.999749+00:00",
        "meta_object_name": "STARLINK-35660",
        "meta_object_id": "2025-293A",
        "meta_epoch": "2025-12-26T14:00:04.000032",
        "meta_mean_motion": 15.72868551,
        "meta_eccentricity": 0.00036718,
        "meta_inclination": 69.9962,
        "meta_ra_of_asc_node": 283.8151,
        "meta_arg_of_pericenter": 263.3704,
        "meta_mean_anomaly": 36.9639,
        "meta_ephemeris_type": 0,
        "meta_classification_type": "U",
        "meta_norad_cat_id": 67003,
        "meta_element_set_no": 999,
        "meta_rev_at_epoch": 239,
        "meta_bstar": -0.013368511,
        "meta_mean_motion_dot": -0.01618453,
        "meta_mean_motion_ddot": 0,
        "tle_line1": "1 67003U 25293A   25360.58337963 -.01618453  00000+0 -13369-1 0  9999",
        "tle_line2": "2 67003  69.9962 283.8151 0003671 263.3704  36.9639 15.72868551  2397"
      },
      "geometry": {
        "type": "Point",
        "coordinates": [
          -93.55880201842444,
          -38.46982089476416
        ]
      }
    }
  ]
}